[
    {
        "Altitude(m)": 624792.799882584,
        "Argument of Periapsis(deg)": 0.0,
        "Eccentricity": 0.0,
        "Inclination(deg)": 60.0,
        "Latitude(deg)": -59.1471718839249,
        "Longitude(deg)": -45.973494685625646,
        "Mean Anomaly(deg)": -98.18179999999997,
        "RAAN(deg)": 160.0,
        "Satellite Name": "Test1 720",
        "Satellite Number": 720,
        "Semi-Major Axis(m)": 6980739.136638005,
        "Time(s)": 0
    },
    {
        "Altitude(m)": 624842.1914382282,
        "Argument of Periapsis(deg)": 0.00010418945913296404,
        "Eccentricity": 0.0,
        "Inclination(deg)": 60.0,
        "Latitude(deg)": -59.28925424355478,
        "Longitude(deg)": -44.843987269515736,
        "Mean Anomaly(deg)": -97.56169385453812,
        "RAAN(deg)": 159.99957995086024,
        "Satellite Name": "Test1 720",
        "Satellite Number": 720,
        "Semi-Major Axis(m)": 6980739.136638005,
        "Time(s)": 10
    }
]